HTV-X1                  
1 66174U 25241A   26063.86671769  .00009014  00000+0  17477-3 0  9997
2 66174  51.6315  96.2009 0008177 157.5272 202.6076 15.48447334555466
SZ-21 MODULE            
1 66515U 25246C   26064.17031800  .00041059  00000+0  35896-3 0  9992
2 66515  41.4734 231.1730 0001469 290.3140  69.7543 15.68139607 17361
SHENZHOU-22             
1 66645U 25272A   26063.91577052  .00022117  00000+0  26479-3 0  9991
2 66645  41.4655 237.2033 0006804 243.7896 116.2243 15.60409426268430
SOYUZ-MS 28             
1 66664U 25275A   26063.86671769  .00009014  00000+0  17477-3 0  9998
2 66664  51.6315  96.2009 0008177 157.5272 202.6076 15.48447334555583
DUPLEX                  
1 66906U 98067XS  26063.38398991  .00042212  00000+0  60284-3 0  9997
2 66906  51.6284  95.9816 0002074  91.8511 268.2718 15.55826494 14302
ISS OBJECT XT           
1 66907U 98067XT  26064.05899960  .00152406  00000+0  13459-2 0  9993
2 66907  51.6250  89.2282 0004673  49.4593 310.6809 15.67662291 14450
ISS OBJECT XU           
1 66908U 98067XU  26063.29254613  .00190633  00000+0  16845-2 0  9995
2 66908  51.6245  93.1068 0004676  47.0078 313.1309 15.67514512 14338
SILVERSAT               
1 66909U 98067XV  26064.06666031  .00192370  00000+0  15169-2 0  9991
2 66909  51.6240  88.5241 0005454  48.4594 311.6871 15.70274385 14464
ISS OBJECT XW           
1 66910U 98067XW  26064.11590703  .00136506  00000+0  12326-2 0  9992
2 66910  51.6242  88.8496 0005012  59.2455 300.9034 15.67168972 14461
ISS OBJECT XX           
1 66911U 98067XX  26064.07213096  .00238020  00000+0  16693-2 0  9990
2 66911  51.6210  87.7948 0007044  55.4619 304.7043 15.72901733 14462
ISS OBJECT XY           
1 66912U 98067XY  26064.10656842  .00093092  00000+0  10104-2 0  9994
2 66912  51.6265  90.3029 0003046  62.7739 297.3566 15.62727645 14436
ISS OBJECT XZ           
1 67683U 98067XZ  26063.31738248  .00052289  00000+0  87421-3 0  9993
2 67683  51.6304  98.5346 0009491 167.7937 192.3284 15.51337660  3952
GXIBA-1                 
1 67684U 98067YA  26064.06987840  .00079615  00000+0  12232-2 0  9990
2 67684  51.6301  94.5596 0010898 160.3519 199.7893 15.53491621  4072
CORAL                   
1 67685U 98067YB  26064.08693506  .00047663  00000+0  78666-3 0  9998
2 67685  51.6309  94.6739 0011365 166.7274 193.4017 15.51717466  4074
ISS OBJECT YC           
1 67686U 98067YC  26064.08285944  .00055661  00000+0  90337-3 0  9998
2 67686  51.6311  94.6478 0007744 134.4448 225.7176 15.52157473  4071
LEOPARD                 
1 67687U 98067YD  26063.31561112  .00056781  00000+0  94368-3 0  9990
2 67687  51.6306  98.5236 0007781 136.2386 223.9221 15.51484974  3879
ISS OBJECT YE           
1 67688U 98067YE  26063.50513603  .00064836  00000+0  10599-2 0  9997
2 67688  51.6315  97.5383 0007786 134.7310 225.4314 15.51890022  3906
